EUTELSAT 21B            
1 38992U 12062B   26007.92475391  .00000133  00000+0  00000+0 0  9992
2 38992   0.0687  19.4373 0003067 272.5003 170.0320  1.00271588 48227
EUTELSAT 70B            
1 39020U 12069A   26007.94608637 -.00000040  00000+0  00000+0 0  9993
2 39020   0.0637 343.9214 0003874 279.4419 255.2334  1.00272545 47906
EUTELSAT 117 WEST A     
1 39122U 13012A   26007.64619531 -.00000010  00000+0  00000+0 0  9994
2 39122   0.0454 279.9591 0003195  14.6231 288.4487  1.00274640 46824
EUTELSAT 7B             
1 39163U 13022A   26007.90114127  .00000051  00000+0  00000+0 0  9994
2 39163   0.0651   4.5330 0005438 324.6512 109.6612  1.00271987 46341
EXPRESS-AT1             
1 39612U 14010A   26008.10847576  .00000083  00000+0  00000+0 0  9990
2 39612   0.0175 297.9754 0000194  18.0300 246.6777  1.00269157 43215
EXPRESS-AT2             
1 39613U 14010B   26007.91105027  .00000000  00000+0  00000+0 0  9996
2 39613   0.0177  30.2025 0001249 267.6816 277.4220  1.00269249 42893
EUTELSAT 3B             
1 39773U 14030A   26007.90669620  .00000024  00000+0  00000+0 0  9994
2 39773   0.0626 345.1796 0004045 255.1589 196.6424  1.00273715 42462
EUTELSAT 115 WEST B     
1 40425U 15010B   26007.64662865 -.00000022  00000+0  00000+0 0  9993
2 40425   0.0099 195.6586 0000257 256.4584 132.9755  1.00274395 39783
